{"type": "FeatureCollection", "features": [ {"type": "Feature", "properties": {"norad_id": 66516, "name": "STARLINK-35924", "group": "last-30-days", "lat": 24.47824251164442, "lon": -147.6888974480376, "alt_km": 423.49715431076856, "timestamp": "2025-12-11T10:53:14.619785+00:00", "meta": {"OBJECT_NAME": "STARLINK-35924", "OBJECT_ID": "2025-265A", "EPOCH": "2025-12-11T04:00:01.998720", "MEAN_MOTION": 15.47816792, "ECCENTRICITY": 0.0001451, "INCLINATION": 42.9999, "RA_OF_ASC_NODE": 63.2276, "ARG_OF_PERICENTER": 258.3032, "MEAN_ANOMALY": 84.0446, "EPHEMERIS_TYPE": 0, "CLASSIFICATION_TYPE": "U", "NORAD_CAT_ID": 66516, "ELEMENT_SET_NO": 999, "REV_AT_EPOCH": 472, "BSTAR": -0.043397, "MEAN_MOTION_DOT": -0.02054702, "MEAN_MOTION_DDOT": 0}, "tle": {"line1": "1 66516U 25265A   25345.16668980 -.02054702  00000+0 -43397-1 0  9995", "line2": "2 66516  42.9999  63.2276 0001451 258.3032  84.0446 15.47816792  4727"}}, "geometry": {"type": "Point", "coordinates": [-147.6888974480376, 24.47824251164442]}}, {"type": "Feature", "properties": {"norad_id": 66517, "name": "STARLINK-35937", "group": "last-30-days", "lat": 19.24779162356698, "lon": -140.46907959795936, "alt_km": 412.39957612805756, "timestamp": "2025-12-11T10:53:14.619795+00:00", "meta": {"OBJECT_NAME": "STARLINK-35937", "OBJECT_ID": "2025-265B", "EPOCH": "2025-12-11T04:00:01.998720", "MEAN_MOTION": 15.50589714, "ECCENTRICITY": 0.0001549, "INCLINATION": 42.9999, "RA_OF_ASC_NODE": 63.2162, "ARG_OF_PERICENTER": 258.0357, "MEAN_ANOMALY": 89.2892, "EPHEMERIS_TYPE": 0, "CLASSIFICATION_TYPE": "U", "NORAD_CAT_ID": 66517, "ELEMENT_SET_NO": 999, "REV_AT_EPOCH": 474, "BSTAR": -0.0010008, "MEAN_MOTION_DOT": -0.00058638, "MEAN_MOTION_DDOT": 0}, "tle": {"line1": "1 66517U 25265B   25345.16668980 -.00058638  00000+0 -10008-2 0  9990", "line2": "2 66517  42.9999  63.2162 0001549 258.0357  89.2892 15.50589714  4746"}}, "geometry": {"type": "Point", "coordinates": [-140.46907959795936, 19.24779162356698]}}, {"type": "Feature", "properties": {"norad_id": 66518, "name": "STARLINK-35962", "group": "last-30-days", "lat": 18.02542178091318, "lon": -138.90660068463828, "alt_km": 412.6326925708354, "timestamp": "2025-12-11T10:53:14.619806+00:00", "meta": {"OBJECT_NAME": "STARLINK-35962", "OBJECT_ID": "2025-265C", "EPOCH": "2025-12-11T04:00:01.998720", "MEAN_MOTION": 15.50613554, "ECCENTRICITY": 0.0001482, "INCLINATION": 42.9998, "RA_OF_ASC_NODE": 63.2114, "ARG_OF_PERICENTER": 263.8294, "MEAN_ANOMALY": 85.4023, "EPHEMERIS_TYPE": 0, "CLASSIFICATION_TYPE": "U", "NORAD_CAT_ID": 66518, "ELEMENT_SET_NO": 999, "REV_AT_EPOCH": 474, "BSTAR": -0.0016133, "MEAN_MOTION_DOT": -0.00093973, "MEAN_MOTION_DDOT": 0}, "tle": {"line1": "1 66518U 25265C   25345.16668980 -.00093973  00000+0 -16133-2 0  9997", "line2": "2 66518  42.9998  63.2114 0001482 263.8294  85.4023 15.50613554  4747"}}, "geometry": {"type": "Point", "coordinates": [-138.90660068463828, 18.02542178091318]}}, {"type": "Feature", "properties": {"norad_id": 66519, "name": "STARLINK-35931", "group": "last-30-days", "lat": 16.793852596849277, "lon": -137.36943819087975, "alt_km": 412.86666029045045, "timestamp": "2025-12-11T10:53:14.619818+00:00", "meta": {"OBJECT_NAME": "STARLINK-35931", "OBJECT_ID": "2025-265D", "EPOCH": "2025-12-11T04:00:01.998720", "MEAN_MOTION": 15.50621709, "ECCENTRICITY": 0.0001875, "INCLINATION": 43.0001, "RA_OF_ASC_NODE": 63.2067, "ARG_OF_PERICENTER": 263.0228, "MEAN_ANOMALY": 88.1254, "EPHEMERIS_TYPE": 0, "CLASSIFICATION_TYPE": "U", "NORAD_CAT_ID": 66519, "ELEMENT_SET_NO": 999, "REV_AT_EPOCH": 474, "BSTAR": -0.0017937, "MEAN_MOTION_DOT": -0.00104344, "MEAN_MOTION_DDOT": 0}, "tle": {"line1": "1 66519U 25265D   25345.16668980 -.00104344  00000+0 -17937-2 0  9996", "line2": "2 66519  43.0001  63.2067 0001875 263.0228  88.1254 15.50621709  4744"}}, "geometry": {"type": "Point", "coordinates": [-137.36943819087975, 16.793852596849277]}}, {"type": "Feature", "properties": {"norad_id": 66520, "name": "STARLINK-35952", "group": "last-30-days", "lat": 15.557589025700613, "lon": -135.86202624910163, "alt_km": 412.8712846439521, "timestamp": "2025-12-11T10:53:14.619829+00:00", "meta": {"OBJECT_NAME": "STARLINK-35952", "OBJECT_ID": "2025-265E", "EPOCH": "2025-12-11T04:00:01.998720", "MEAN_MOTION": 15.50551537, "ECCENTRICITY": 0.000125, "INCLINATION": 42.9998, "RA_OF_ASC_NODE": 63.2006, "ARG_OF_PERICENTER": 266.1763, "MEAN_ANOMALY": 86.898, "EPHEMERIS_TYPE": 0, "CLASSIFICATION_TYPE": "U", "NORAD_CAT_ID": 66520, "ELEMENT_SET_NO": 999, "REV_AT_EPOCH": 474, "BSTAR": 0.00088349, "MEAN_MOTION_DOT": 0.00051781, "MEAN_MOTION_DDOT": 0}, "tle": {"line1": "1 66520U 25265E   25345.16668980  .00051781  00000+0  88349-3 0  9998", "line2": "2 66520  42.9998  63.2006 0001250 266.1763  86.8980 15.50551537  4749"}}, "geometry": {"type": "Point", "coordinates": [-135.86202624910163, 15.557589025700613]}}, {"type": "Feature", "properties": {"norad_id": 66521, "name": "STARLINK-35915", "group": "last-30-days", "lat": 14.298804508171186, "lon": -134.35588659211524, "alt_km": 413.01676507674347, "timestamp": "2025-12-11T10:53:14.619839+00:00", "meta": {"OBJECT_NAME": "STARLINK-35915", "OBJECT_ID": "2025-265F", "EPOCH": "2025-12-11T04:00:01.998720", "MEAN_MOTION": 15.50620201, "ECCENTRICITY": 0.0001522, "INCLINATION": 42.9999, "RA_OF_ASC_NODE": 63.1966, "ARG_OF_PERICENTER": 258.1832, "MEAN_ANOMALY": 96.795, "EPHEMERIS_TYPE": 0, "CLASSIFICATION_TYPE": "U", "NORAD_CAT_ID": 66521, "ELEMENT_SET_NO": 999, "REV_AT_EPOCH": 474, "BSTAR": -0.0017272, "MEAN_MOTION_DOT": -0.00100527, "MEAN_MOTION_DDOT": 0}, "tle": {"line1": "1 66521U 25265F   25345.16668980 -.00100527  00000+0 -17272-2 0  9990", "line2": "2 66521  42.9999  63.1966 0001522 258.1832  96.7950 15.50620201  4747"}}, "geometry": {"type": "Point", "coordinates": [-134.35588659211524, 14.298804508171186]}}, {"type": "Feature", "properties": {"norad_id": 66522, "name": "STARLINK-35946", "group": "last-30-days", "lat": 13.044052785729507, "lon": -132.8837183730888, "alt_km": 413.25884759393557, "timestamp": "2025-12-11T10:53:14.619849+00:00", "meta": {"OBJECT_NAME": "STARLINK-35946", "OBJECT_ID": "2025-265G", "EPOCH": "2025-12-11T04:00:01.998720", "MEAN_MOTION": 15.50557473, "ECCENTRICITY": 0.0001639, "INCLINATION": 42.9998, "RA_OF_ASC_NODE": 63.1912, "ARG_OF_PERICENTER": 263.0311, "MEAN_ANOMALY": 93.8824, "EPHEMERIS_TYPE": 0, "CLASSIFICATION_TYPE": "U", "NORAD_CAT_ID": 66522, "ELEMENT_SET_NO": 999, "REV_AT_EPOCH": 474, "BSTAR": 0.00035828, "MEAN_MOTION_DOT": 0.00020716, "MEAN_MOTION_DDOT": 0}, "tle": {"line1": "1 66522U 25265G   25345.16668980  .00020716  00000+0  35828-3 0  9998", "line2": "2 66522  42.9998  63.1912 0001639 263.0311  93.8824 15.50557473  4742"}}, "geometry": {"type": "Point", "coordinates": [-132.8837183730888, 13.044052785729507]}}, {"type": "Feature", "properties": {"norad_id": 66523, "name": "STARLINK-35969", "group": "last-30-days", "lat": 11.765802919465983, "lon": -131.40853269994972, "alt_km": 414.6811084764313, "timestamp": "2025-12-11T10:53:14.619861+00:00", "meta": {"OBJECT_NAME": "STARLINK-35969", "OBJECT_ID": "2025-265H", "EPOCH": "2025-12-11T04:00:01.998720", "MEAN_MOTION": 15.50507193, "ECCENTRICITY": 0.0004243, "INCLINATION": 42.9999, "RA_OF_ASC_NODE": 63.1862, "ARG_OF_PERICENTER": 281.4309, "MEAN_ANOMALY": 77.4665, "EPHEMERIS_TYPE": 0, "CLASSIFICATION_TYPE": "U", "NORAD_CAT_ID": 66523, "ELEMENT_SET_NO": 999, "REV_AT_EPOCH": 474, "BSTAR": 0.0015277, "MEAN_MOTION_DOT": 0.00090111, "MEAN_MOTION_DDOT": 0}, "tle": {"line1": "1 66523U 25265H   25345.16668980  .00090111  00000+0  15277-2 0  9990", "line2": "2 66523  42.9999  63.1862 0004243 281.4309  77.4665 15.50507193  4748"}}, "geometry": {"type": "Point", "coordinates": [-131.40853269994972, 11.765802919465983]}}, {"type": "Feature", "properties": {"norad_id": 66524, "name": "STARLINK-35687", "group": "last-30-days", "lat": 12.654800841194332, "lon": -132.43249234988517, "alt_km": 421.61856501494276, "timestamp": "2025-12-11T10:53:14.619871+00:00", "meta": {"OBJECT_NAME": "STARLINK-35687", "OBJECT_ID": "2025-265J", "EPOCH": "2025-12-11T04:00:01.998720", "MEAN_MOTION": 15.49031222, "ECCENTRICITY": 0.0001716, "INCLINATION": 42.9998, "RA_OF_ASC_NODE": 63.1836, "ARG_OF_PERICENTER": 263.3159, "MEAN_ANOMALY": 96.4511, "EPHEMERIS_TYPE": 0, "CLASSIFICATION_TYPE": "U", "NORAD_CAT_ID": 66524, "ELEMENT_SET_NO": 999, "REV_AT_EPOCH": 474, "BSTAR": -0.041748, "MEAN_MOTION_DOT": -0.02062654, "MEAN_MOTION_DDOT": 0}, "tle": {"line1": "1 66524U 25265J   25345.16668980 -.02062654  00000+0 -41748-1 0  9997", "line2": "2 66524  42.9998  63.1836 0001716 263.3159  96.4511 15.49031222  4747"}}, "geometry": {"type": "Point", "coordinates": [-132.43249234988517, 12.654800841194332]}}, {"type": "Feature", "properties": {"norad_id": 66525, "name": "STARLINK-35975", "group": "last-30-days", "lat": 9.203216949731026, "lon": -128.51472574600842, "alt_km": 413.73313030132067, "timestamp": "2025-12-11T10:53:14.619881+00:00", "meta": {"OBJECT_NAME": "STARLINK-35975", "OBJECT_ID": "2025-265K", "EPOCH": "2025-12-11T04:00:01.998720", "MEAN_MOTION": 15.50608831, "ECCENTRICITY": 0.0001535, "INCLINATION": 42.9999, "RA_OF_ASC_NODE": 63.1772, "ARG_OF_PERICENTER": 263.1339, "MEAN_ANOMALY": 99.518, "EPHEMERIS_TYPE": 0, "CLASSIFICATION_TYPE": "U", "NORAD_CAT_ID": 66525, "ELEMENT_SET_NO": 999, "REV_AT_EPOCH": 474, "BSTAR": -0.0013656, "MEAN_MOTION_DOT": -0.00079731, "MEAN_MOTION_DDOT": 0}, "tle": {"line1": "1 66525U 25265K   25345.16668980 -.00079731  00000+0 -13656-2 0  9998", "line2": "2 66525  42.9999  63.1772 0001535 263.1339  99.5180 15.50608831  4749"}}, "geometry": {"type": "Point", "coordinates": [-128.51472574600842, 9.203216949731026]}}]}